CCSDS_OMM_VERS = 2.0
CREATION_DATE  = 
ORIGINATOR     = 

OBJECT_NAME    = STARLINK-36274
OBJECT_ID      = 2026-054V
CENTER_NAME    = EARTH
REF_FRAME      = TEME
TIME_SYSTEM    = UTC
MEAN_ELEMENT_THEORY = SGP/SGP4

EPOCH          = 2026-03-26T22:00:01.999584
MEAN_MOTION    = 15.80839322
ECCENTRICITY   = .00008539
INCLINATION    = 53.1590
RA_OF_ASC_NODE = 226.1737
ARG_OF_PERICENTER = 75.6529
MEAN_ANOMALY   = 169.9154

EPHEMERIS_TYPE = 0
CLASSIFICATION_TYPE = U
NORAD_CAT_ID   = 68251
ELEMENT_SET_NO = 999
REV_AT_EPOCH   = 272
BSTAR          = .21452635E-3
MEAN_MOTION_DOT = .41781E-3
MEAN_MOTION_DDOT = 0

CCSDS_OMM_VERS = 2.0
CREATION_DATE  = 
ORIGINATOR     = 

OBJECT_NAME    = STARLINK-37085
OBJECT_ID      = 2026-054W
CENTER_NAME    = EARTH
REF_FRAME      = TEME
TIME_SYSTEM    = UTC
MEAN_ELEMENT_THEORY = SGP/SGP4

EPOCH          = 2026-03-26T22:00:01.999584
MEAN_MOTION    = 15.80924495
ECCENTRICITY   = .00017026
INCLINATION    = 53.1591
RA_OF_ASC_NODE = 226.1645
ARG_OF_PERICENTER = 72.7470
MEAN_ANOMALY   = 177.0519

EPHEMERIS_TYPE = 0
CLASSIFICATION_TYPE = U
NORAD_CAT_ID   = 68252
ELEMENT_SET_NO = 999
REV_AT_EPOCH   = 268
BSTAR          = -.44359902E-3
MEAN_MOTION_DOT = -.87584E-3
MEAN_MOTION_DDOT = 0

CCSDS_OMM_VERS = 2.0
CREATION_DATE  = 
ORIGINATOR     = 

OBJECT_NAME    = STARLINK-37086
OBJECT_ID      = 2026-054X
CENTER_NAME    = EARTH
REF_FRAME      = TEME
TIME_SYSTEM    = UTC
MEAN_ELEMENT_THEORY = SGP/SGP4

EPOCH          = 2026-03-26T22:00:01.999584
MEAN_MOTION    = 15.81107681
ECCENTRICITY   = .00012554
INCLINATION    = 53.1590
RA_OF_ASC_NODE = 226.1565
ARG_OF_PERICENTER = 77.4039
MEAN_ANOMALY   = 176.5708

EPHEMERIS_TYPE = 0
CLASSIFICATION_TYPE = U
NORAD_CAT_ID   = 68253
ELEMENT_SET_NO = 999
REV_AT_EPOCH   = 268
BSTAR          = -.19474965E-2
MEAN_MOTION_DOT = -.373E-2
MEAN_MOTION_DDOT = 0

CCSDS_OMM_VERS = 2.0
CREATION_DATE  = 
ORIGINATOR     = 

OBJECT_NAME    = STARLINK-37084
OBJECT_ID      = 2026-054Y
CENTER_NAME    = EARTH
REF_FRAME      = TEME
TIME_SYSTEM    = UTC
MEAN_ELEMENT_THEORY = SGP/SGP4

EPOCH          = 2026-03-26T22:00:01.999584
MEAN_MOTION    = 15.81803397
ECCENTRICITY   = .00014566
INCLINATION    = 53.1591
RA_OF_ASC_NODE = 226.1395
ARG_OF_PERICENTER = 68.8388
MEAN_ANOMALY   = 193.2529

EPHEMERIS_TYPE = 0
CLASSIFICATION_TYPE = U
NORAD_CAT_ID   = 68254
ELEMENT_SET_NO = 999
REV_AT_EPOCH   = 268
BSTAR          = -.66450284E-2
MEAN_MOTION_DOT = -.1216431E-1
MEAN_MOTION_DDOT = 0

CCSDS_OMM_VERS = 2.0
CREATION_DATE  = 
ORIGINATOR     = 

OBJECT_NAME    = STARLINK-37075
OBJECT_ID      = 2026-054Z
CENTER_NAME    = EARTH
REF_FRAME      = TEME
TIME_SYSTEM    = UTC
MEAN_ELEMENT_THEORY = SGP/SGP4

EPOCH          = 2026-03-26T22:00:01.999584
MEAN_MOTION    = 15.81475534
ECCENTRICITY   = .00011912
INCLINATION    = 53.1590
RA_OF_ASC_NODE = 226.1479
ARG_OF_PERICENTER = 76.3491
MEAN_ANOMALY   = 181.6883

EPHEMERIS_TYPE = 0
CLASSIFICATION_TYPE = U
NORAD_CAT_ID   = 68255
ELEMENT_SET_NO = 999
REV_AT_EPOCH   = 268
BSTAR          = -.46741708E-2
MEAN_MOTION_DOT = -.860238E-2
MEAN_MOTION_DDOT = 0

CCSDS_OMM_VERS = 2.0
CREATION_DATE  = 
ORIGINATOR     = 

OBJECT_NAME    = STARLINK-36333
OBJECT_ID      = 2026-054AA
CENTER_NAME    = EARTH
REF_FRAME      = TEME
TIME_SYSTEM    = UTC
MEAN_ELEMENT_THEORY = SGP/SGP4

EPOCH          = 2026-03-26T22:00:01.999584
MEAN_MOTION    = 15.82130690
ECCENTRICITY   = .00010455
INCLINATION    = 53.1590
RA_OF_ASC_NODE = 226.1314
ARG_OF_PERICENTER = 53.1864
MEAN_ANOMALY   = 212.9223

EPHEMERIS_TYPE = 0
CLASSIFICATION_TYPE = U
NORAD_CAT_ID   = 68256
ELEMENT_SET_NO = 999
REV_AT_EPOCH   = 272
BSTAR          = -.83863253E-2
MEAN_MOTION_DOT = -.1543178E-1
MEAN_MOTION_DDOT = 0

CCSDS_OMM_VERS = 2.0
CREATION_DATE  = 
ORIGINATOR     = 

OBJECT_NAME    = STARLINK-36745
OBJECT_ID      = 2026-054AB
CENTER_NAME    = EARTH
REF_FRAME      = TEME
TIME_SYSTEM    = UTC
MEAN_ELEMENT_THEORY = SGP/SGP4

EPOCH          = 2026-03-26T22:00:01.999584
MEAN_MOTION    = 15.82759526
ECCENTRICITY   = .00008555
INCLINATION    = 53.1590
RA_OF_ASC_NODE = 226.1143
ARG_OF_PERICENTER = 70.3273
MEAN_ANOMALY   = 203.6686

EPHEMERIS_TYPE = 0
CLASSIFICATION_TYPE = U
NORAD_CAT_ID   = 68257
ELEMENT_SET_NO = 999
REV_AT_EPOCH   = 268
BSTAR          = -.10502964E-1
MEAN_MOTION_DOT = -.1967438E-1
MEAN_MOTION_DDOT = 0

CCSDS_OMM_VERS = 2.0
CREATION_DATE  = 
ORIGINATOR     = 

OBJECT_NAME    = STARLINK-36890
OBJECT_ID      = 2026-054AC
CENTER_NAME    = EARTH
REF_FRAME      = TEME
TIME_SYSTEM    = UTC
MEAN_ELEMENT_THEORY = SGP/SGP4

EPOCH          = 2026-03-26T22:00:01.999584
MEAN_MOTION    = 15.82995884
ECCENTRICITY   = .00009761
INCLINATION    = 53.1591
RA_OF_ASC_NODE = 226.1066
ARG_OF_PERICENTER = 60.7781
MEAN_ANOMALY   = 217.1002

EPHEMERIS_TYPE = 0
CLASSIFICATION_TYPE = U
NORAD_CAT_ID   = 68258
ELEMENT_SET_NO = 999
REV_AT_EPOCH   = 268
BSTAR          = -.10423911E-1
MEAN_MOTION_DOT = -.1973898E-1
MEAN_MOTION_DDOT = 0

CCSDS_OMM_VERS = 2.0
CREATION_DATE  = 
ORIGINATOR     = 

OBJECT_NAME    = STARLINK-36323
OBJECT_ID      = 2026-054AD
CENTER_NAME    = EARTH
REF_FRAME      = TEME
TIME_SYSTEM    = UTC
MEAN_ELEMENT_THEORY = SGP/SGP4

EPOCH          = 2026-03-26T22:00:01.999584
MEAN_MOTION    = 15.82472269
ECCENTRICITY   = .00009987
INCLINATION    = 53.1590
RA_OF_ASC_NODE = 226.1228
ARG_OF_PERICENTER = 58.0582
MEAN_ANOMALY   = 212.0026

EPHEMERIS_TYPE = 0
CLASSIFICATION_TYPE = U
NORAD_CAT_ID   = 68259
ELEMENT_SET_NO = 999
REV_AT_EPOCH   = 272
BSTAR          = -.97412083E-2
MEAN_MOTION_DOT = -.1820921E-1
MEAN_MOTION_DDOT = 0

CCSDS_OMM_VERS = 2.0
CREATION_DATE  = 
ORIGINATOR     = 

OBJECT_NAME    = STARLINK-37056
OBJECT_ID      = 2026-054AE
CENTER_NAME    = EARTH
REF_FRAME      = TEME
TIME_SYSTEM    = UTC
MEAN_ELEMENT_THEORY = SGP/SGP4

EPOCH          = 2026-03-26T22:00:01.999584
MEAN_MOTION    = 15.83175865
ECCENTRICITY   = .00011139
INCLINATION    = 53.1591
RA_OF_ASC_NODE = 226.0985
ARG_OF_PERICENTER = 77.0582
MEAN_ANOMALY   = 204.7255

EPHEMERIS_TYPE = 0
CLASSIFICATION_TYPE = U
NORAD_CAT_ID   = 68260
ELEMENT_SET_NO = 999
REV_AT_EPOCH   = 268
BSTAR          = -.10091387E-1
MEAN_MOTION_DOT = -.1933748E-1
MEAN_MOTION_DDOT = 0

CCSDS_OMM_VERS = 2.0
CREATION_DATE  = 
ORIGINATOR     = 

OBJECT_NAME    = TEN-KOH 2
OBJECT_ID      = 2025-241B
CENTER_NAME    = EARTH
REF_FRAME      = TEME
TIME_SYSTEM    = UTC
MEAN_ELEMENT_THEORY = SGP/SGP4

EPOCH          = 2026-03-26T22:43:47.662752
MEAN_MOTION    = 15.22706866
ECCENTRICITY   = .00044362
INCLINATION    = 51.6377
RA_OF_ASC_NODE = 350.8127
ARG_OF_PERICENTER = 217.7972
MEAN_ANOMALY   = 142.2694

EPHEMERIS_TYPE = 0
CLASSIFICATION_TYPE = U
NORAD_CAT_ID   = 68261
ELEMENT_SET_NO = 999
REV_AT_EPOCH   = 237
BSTAR          = .41321647E-3
MEAN_MOTION_DOT = .9447E-4
MEAN_MOTION_DDOT = 0

CCSDS_OMM_VERS = 2.0
CREATION_DATE  = 
ORIGINATOR     = 

OBJECT_NAME    = STARLINK-37162
OBJECT_ID      = 2026-055A
CENTER_NAME    = EARTH
REF_FRAME      = TEME
TIME_SYSTEM    = UTC
MEAN_ELEMENT_THEORY = SGP/SGP4

EPOCH          = 2026-03-26T22:00:01.999584
MEAN_MOTION    = 15.98836259
ECCENTRICITY   = .0000683
INCLINATION    = 53.1590
RA_OF_ASC_NODE = 251.5246
ARG_OF_PERICENTER = 64.6361
MEAN_ANOMALY   = 110.9383

EPHEMERIS_TYPE = 0
CLASSIFICATION_TYPE = U
NORAD_CAT_ID   = 68262
ELEMENT_SET_NO = 999
REV_AT_EPOCH   = 240
BSTAR          = -.17908646E-2
MEAN_MOTION_DOT = -.882708E-2
MEAN_MOTION_DDOT = .26189077E-3

