STARLINK-36274          
1 68251U 26054V   26085.91668981  .00041781  00000+0  21453-3 0  9996
2 68251  53.1590 226.1737 0000853  75.6529 169.9154 15.80839322  2722
STARLINK-37085          
1 68252U 26054W   26085.91668981 -.00087584  00000+0 -44360-3 0  9992
2 68252  53.1591 226.1645 0001702  72.7470 177.0519 15.80924495  2685
STARLINK-37086          
1 68253U 26054X   26085.91668981 -.00373000  00000+0 -19475-2 0  9992
2 68253  53.1590 226.1565 0001255  77.4039 176.5708 15.81107681  2687
STARLINK-37084          
1 68254U 26054Y   26085.91668981 -.01216431  00000+0 -66450-2 0  9993
2 68254  53.1591 226.1395 0001456  68.8388 193.2529 15.81803397  2688
STARLINK-37075          
1 68255U 26054Z   26085.91668981 -.00860238  00000+0 -46742-2 0  9995
2 68255  53.1590 226.1479 0001191  76.3491 181.6883 15.81475534  2688
STARLINK-36333          
1 68256U 26054AA  26085.91668981 -.01543178  00000+0 -83863-2 0  9993
2 68256  53.1590 226.1314 0001045  53.1864 212.9223 15.82130690  2725
STARLINK-36745          
1 68257U 26054AB  26085.91668981 -.01967438  00000+0 -10503-1 0  9993
2 68257  53.1590 226.1143 0000855  70.3273 203.6686 15.82759526  2689
STARLINK-36890          
1 68258U 26054AC  26085.91668981 -.01973898  00000+0 -10424-1 0  9993
2 68258  53.1591 226.1066 0000976  60.7781 217.1002 15.82995884  2687
STARLINK-36323          
1 68259U 26054AD  26085.91668981 -.01820921  00000+0 -97412-2 0  9995
2 68259  53.1590 226.1228 0000998  58.0582 212.0026 15.82472269  2722
STARLINK-37056          
1 68260U 26054AE  26085.91668981 -.01933748  00000+0 -10091-1 0  9996
2 68260  53.1591 226.0985 0001113  77.0582 204.7255 15.83175865  2685
TEN-KOH 2               
1 68261U 25241B   26085.94707943  .00009447  00000+0  41322-3 0  9999
2 68261  51.6377 350.8127 0004436 217.7972 142.2694 15.22706866  2375
STARLINK-37162          
1 68262U 26055A   26085.91668981 -.00882708  26189-3 -17909-2 0  9993
2 68262  53.1590 251.5246 0000683  64.6361 110.9383 15.98836259  2404
